CELESTIS-02             
1 25160U 98007D   22337.42219587 -.00000021  00000+0  48472-4 0  9995
2 25160 107.9837 247.0197 0062440 182.8017 276.3417 14.21667516287099
CELESTIS-03             
1 26034U 99070C   22336.84716763  .00021280  00000+0  83894-3 0  9995
2 26034  98.3038   0.2733 0006949 277.7835  82.2611 15.25591582246689
